ONEWEB-0264             
1 48982U 21060R   23322.65769821  .00000064  00000+0  13388-3 0  9991
2 48982  87.9102  56.1750 0001622 101.8014 258.3298 13.16592763115704
ONEWEB-0266             
1 48984U 21060T   23322.67986969 -.00000062  00000+0 -19669-3 0  9997
2 48984  87.9092  56.1543 0001780 107.4612 252.6714 13.16594359115696
ONEWEB-0267             
1 48985U 21060U   23322.69043061 -.00000023  00000+0 -93097-4 0  9992
2 48985  87.9088  56.1529 0001329  92.6808 267.4475 13.16594784115709
ONEWEB-0268             
1 48986U 21060V   23323.19075752  .00000625  00000+0  16012-2 0  9997
2 48986  87.9098  56.0581 0001668 101.2794 258.8524 13.16597123117324
ONEWEB-0269             
1 48987U 21060W   23322.71576009  .00000174  00000+0  42107-3 0  9990
2 48987  87.9085  56.1783 0001752 101.6473 258.4855 13.16594231115742
ONEWEB-0270             
1 48988U 21060X   23322.96063088 -.00000008  00000+0 -54318-4 0  9992
2 48988  87.9093  56.1160 0001054 118.0890 242.0347 13.16595790117121
ONEWEB-0271             
1 48989U 21060Y   23322.56797977  .00000243  00000+0  60274-3 0  9996
2 48989  87.9092  56.1692 0001218  97.8455 262.2814 13.16593784117050
ONEWEB-0272             
1 48990U 21060Z   23322.66720452 -.00000038  00000+0 -13428-3 0  9996
2 48990  87.9096  56.1749 0001368  99.6202 260.5083 13.16595524115720
